H1 CPF 01  gfz 2021 11 29 13  8332 tandemx   
H2 1003001  6202 36605    2021 11 29 12 59 42 2021 12 04 00 00 42   120 1 1  0 0 0
H9
10 0 59548  76302.000000  0   -1315410.566   2645689.014  -6229766.807
10 0 59548  76422.000000  0    -691581.582   2050621.546  -6546682.731
10 0 59548  76542.000000  0     -66589.585   1409101.938  -6749373.457
10 0 59548  76662.000000  0     548022.648    732335.279  -6834353.048
10 0 59548  76782.000000  0    1141101.396     32322.928  -6800162.557
10 0 59548  76902.000000  0    1702080.449   -678346.467  -6647391.975
10 0 59548  77022.000000  0    2221164.275  -1386717.674  -6378669.857
10 0 59548  77142.000000  0    2689495.958  -2079698.878  -5998623.278
10 0 59548  77262.000000  0    3099307.180  -2744297.850  -5513807.233
10 0 59548  77382.000000  0    3444049.514  -3367864.241  -4932603.910
10 0 59548  77502.000000  0    3718502.513  -3938331.445  -4265086.917
10 0 59548  77622.000000  0    3918855.615  -4444451.123  -3522856.737
10 0 59548  77742.000000  0    4042765.112  -4876019.142  -2718848.943
10 0 59548  77862.000000  0    4089383.933  -5224088.085  -1867114.681
10 0 59548  77982.000000  0    4059360.330  -5481159.677   -982575.902
10 0 59548  78102.000000  0    3954806.784  -5641351.077    -80761.453
10 0 59548  78222.000000  0    3779238.351  -5700531.254    822471.485
10 0 59548  78342.000000  0    3537482.492  -5656423.560   1711223.959
10 0 59548  78462.000000  0    3235561.956  -5508670.256   2569845.282
10 0 59548  78582.000000  0    2880552.478  -5258857.538   3383216.362
10 0 59548  78702.000000  0    2480421.401  -4910502.345   4137022.171
10 0 59548  78822.000000  0    2043851.133  -4469000.070   4818007.917
10 0 59548  78942.000000  0    1580050.882  -3941534.821   5414213.567
10 0 59548  79062.000000  0    1098562.206  -3336955.016   5915183.047
10 0 59548  79182.000000  0     609061.156  -2665616.540   6312143.471
10 0 59548  79302.000000  0     121163.471  -1939199.212   6598151.818
10 0 59548  79422.000000  0    -355763.402  -1170500.032   6768209.535
10 0 59548  79542.000000  0    -812778.850   -373206.153   6819345.886
10 0 59548  79662.000000  0   -1241535.650    438349.975   6750666.789
10 0 59548  79782.000000  0   -1634431.959   1249447.939   6563369.181
10 0 59548  79902.000000  0   -1984745.890   2045245.454   6260721.381
10 0 59548  80022.000000  0   -2286751.292   2811049.454   5848009.749
10 0 59548  80142.000000  0   -2535812.215   3532588.353   5332451.694
10 0 59548  80262.000000  0   -2728455.605   4196280.789   4723076.461
10 0 59548  80382.000000  0   -2862420.853   4789496.930   4030572.888
10 0 59548  80502.000000  0   -2936683.971   5300806.227   3267105.754
10 0 59548  80622.000000  0   -2951455.864   5720205.779   2446102.801
10 0 59548  80742.000000  0   -2908154.855   6039323.318   1582016.888
10 0 59548  80862.000000  0   -2809353.839   6251590.652    690067.463
10 0 59548  80982.000000  0   -2658702.831   6352383.275   -214033.983
10 0 59548  81102.000000  0   -2460829.534   6339121.991  -1114369.332
10 0 59548  81222.000000  0   -2221219.994   6211333.250  -1995105.285
10 0 59548  81342.000000  0   -1946080.293   5970662.813  -2840781.945
10 0 59548  81462.000000  0   -1642185.618   5620847.304  -3636587.442
10 0 59548  81582.000000  0   -1316721.782   5167646.813  -4368618.497
10 0 59548  81702.000000  0    -977122.056   4618737.975  -5024120.848
10 0 59548  81822.000000  0    -630903.501   3983573.428  -5591705.184
10 0 59548  81942.000000  0    -285505.692   3273209.719  -6061537.486
10 0 59548  82062.000000  0      51864.608   2500106.472  -6425499.319
10 0 59548  82182.000000  0     374378.683   1677903.393  -6677315.646
10 0 59548  82302.000000  0     675719.030    821180.144  -6812653.126
10 0 59548  82422.000000  0     950199.144    -54799.461  -6829186.747
10 0 59548  82542.000000  0    1192867.447   -934354.556  -6726634.989
10 0 59548  82662.000000  0    1399593.873  -1801661.145  -6506762.388
10 0 59548  82782.000000  0    1567138.667  -2641028.585  -6173352.493
10 0 59548  82902.000000  0    1693203.281  -3437177.419  -5732151.333
10 0 59548  83022.000000  0    1776461.119  -4175516.723  -5190779.372
10 0 59548  83142.000000  0    1816568.159  -4842412.792  -4558609.336
10 0 59548  83262.000000  0    1814153.533  -5425443.862  -3846615.048
10 0 59548  83382.000000  0    1770789.407  -5913639.901  -3067191.365
10 0 59548  83502.000000  0    1688939.669  -6297699.852  -2233945.137
10 0 59548  83622.000000  0    1571889.666  -6570180.101  -1361460.270
10 0 59548  83742.000000  0    1423657.833  -6725649.787   -465042.278
10 0 59548  83862.000000  0    1248890.651  -6760809.434    439555.244
10 0 59548  83982.000000  0    1052744.479  -6674565.691   1336414.070
10 0 59548  84102.000000  0     840755.374  -6468064.309   2209740.419
10 0 59548  84222.000000  0     618702.578  -6144675.654   3044153.344
10 0 59548  84342.000000  0     392466.470  -5709934.585   3824963.345
10 0 59548  84462.000000  0     167886.127  -5171438.334   4538435.298
10 0 59548  84582.000000  0     -49379.388  -4538704.999   5172032.629
10 0 59548  84702.000000  0    -253983.214  -3822995.110   5714637.145
10 0 59548  84822.000000  0    -441012.678  -3037101.423   6156741.759
10 0 59548  84942.000000  0    -606099.348  -2195110.994   6490610.897
10 0 59548  85062.000000  0    -745514.777  -1312148.387   6710408.164
10 0 59548  85182.000000  0    -856250.100   -404102.319   6812293.587
10 0 59548  85302.000000  0    -936078.703    512661.522   6794487.543
10 0 59548  85422.000000  0    -983600.117   1421595.464   6657299.824
10 0 59548  85542.000000  0    -998264.144   2306267.965   6403124.405
10 0 59548  85662.000000  0    -980375.782   3150660.296   6036400.370
10 0 59548  85782.000000  0    -931081.056   3939457.931   5563539.264
10 0 59548  85902.000000  0    -852333.039   4658331.405   4992818.433
10 0 59548  86022.000000  0    -746839.609   5294202.685   4334242.817
10 0 59548  86142.000000  0    -617993.160   5835491.673   3599373.113
10 0 59548  86262.000000  0    -469783.906   6272334.902   2801127.062
10 0 59548  86382.000000  0    -306699.883   6596778.942   1953552.975
10 0 59549    102.000000  0    -133612.363   6802934.068   1071576.408
10 0 59549    222.000000  0      44348.249   6887087.336    170731.632
10 0 59549    342.000000  0     221922.836   6847773.706   -733119.649
10 0 59549    462.000000  0     393857.731   6685801.313  -1624077.627
10 0 59549    582.000000  0     555036.862   6404229.062  -2486492.526
10 0 59549    702.000000  0     700609.888   6008300.656  -3305245.073
10 0 59549    822.000000  0     826114.115   5505336.697  -4066014.837
10 0 59549    942.000000  0     927586.616   4904587.117  -4755530.838
10 0 59549   1062.000000  0    1001664.031   4217048.497  -5361799.122
10 0 59549   1182.000000  0    1045667.797   3455251.926  -5874303.764
10 0 59549   1302.000000  0    1057672.626   2633026.364  -6284179.869
10 0 59549   1422.000000  0    1036557.778   1765242.164  -6584355.036
10 0 59549   1542.000000  0     982040.081    867542.224  -6769659.823
10 0 59549   1662.000000  0     894688.392    -43937.100  -6836908.201
10 0 59549   1782.000000  0     775919.666   -952851.152  -6784946.010
10 0 59549   1902.000000  0     627975.901  -1842933.159  -6614666.915
10 0 59549   2022.000000  0     453883.596  -2698276.439  -6328998.347
10 0 59549   2142.000000  0     257395.205  -3503613.089  -5932859.232
10 0 59549   2262.000000  0      42912.961  -4244584.871  -5433083.489
10 0 59549   2382.000000  0    -184602.178  -4907999.281  -4838312.711
10 0 59549   2502.000000  0    -419736.722  -5482069.174  -4158858.608
10 0 59549   2622.000000  0    -656743.920  -5956630.828  -3406534.605
10 0 59549   2742.000000  0    -889673.510  -6323334.735  -2594458.291
10 0 59549   2862.000000  0   -1112509.489  -6575805.125  -1736828.020
10 0 59549   2982.000000  0   -1319312.610  -6709764.171   -848675.256
10 0 59549   3102.000000  0   -1504363.942  -6723115.366     54402.328
10 0 59549   3222.000000  0   -1662306.155  -6615983.846    956520.841
10 0 59549   3342.000000  0   -1788279.142  -6390712.459   1841797.618
10 0 59549   3462.000000  0   -1878045.915  -6051812.867   2694640.173
10 0 59549   3582.000000  0   -1928105.205  -5605872.256   3500029.652
10 0 59549   3702.000000  0   -1935787.795  -5061418.691   4243791.815
10 0 59549   3822.000000  0   -1899334.185  -4428749.653   4912849.758
10 0 59549   3942.000000  0   -1817953.121  -3719728.905   5495454.679
10 0 59549   4062.000000  0   -1691858.875  -2947554.215   5981391.327
10 0 59549   4182.000000  0   -1522285.412  -2126503.051   6362151.717
10 0 59549   4302.000000  0   -1311478.667  -1271664.118   6631077.674
10 0 59549   4422.000000  0   -1062668.189   -398656.808   6783471.854
10 0 59549   4542.000000  0    -780018.406    476655.531   6816673.804
10 0 59549   4662.000000  0    -468559.077   1338452.885   6730103.993
10 0 59549   4782.000000  0    -134095.591   2171244.257   6525273.662
10 0 59549   4902.000000  0     216898.980   2960145.966   6205759.854
10 0 59549   5022.000000  0     577407.824   3691147.997   5777146.825
10 0 59549   5142.000000  0     940008.489   4351365.886   5246934.081
10 0 59549   5262.000000  0    1297023.464   4929272.823   4624411.135
10 0 59549   5382.000000  0    1640680.184   5414908.085   3920499.531
10 0 59549   5502.000000  0    1963277.181   5800056.590   3147566.793
10 0 59549   5622.000000  0    2257354.796   6078399.041   2319210.453
10 0 59549   5742.000000  0    2515862.606   6245624.128   1450014.979
10 0 59549   5862.000000  0    2732322.289   6299500.373    555288.710
10 0 59549   5982.000000  0    2900979.260   6239904.988   -349213.209
10 0 59549   6102.000000  0    3016941.464   6068811.615  -1247574.129
10 0 59549   6222.000000  0    3076301.306   5790235.510  -2124004.142
10 0 59549   6342.000000  0    3076237.291   5410138.722  -2963124.685
99
